[{"OBJECT_NAME":"STARLINK-1143","OBJECT_ID":"2020-012B","EPOCH":"2026-03-09T22:47:16.050048","MEAN_MOTION":15.62989311,"ECCENTRICITY":0.00073955,"INCLINATION":53.0474,"RA_OF_ASC_NODE":328.6332,"ARG_OF_PERICENTER":96.968,"MEAN_ANOMALY":263.2175,"EPHEMERIS_TYPE":0,"CLASSIFICATION_TYPE":"U","NORAD_CAT_ID":45179,"ELEMENT_SET_NO":999,"REV_AT_EPOCH":33596,"BSTAR":0.0013180943,"MEAN_MOTION_DOT":0.00123267,"MEAN_MOTION_DDOT":0},{"OBJECT_NAME":"STARLINK-1716","OBJECT_ID":"2020-073C","EPOCH":"2026-03-10T00:00:02.999808","MEAN_MOTION":15.64601667,"ECCENTRICITY":0.00063571,"INCLINATION":53.0437,"RA_OF_ASC_NODE":199.6239,"ARG_OF_PERICENTER":339.4372,"MEAN_ANOMALY":32.4573,"EPHEMERIS_TYPE":0,"CLASSIFICATION_TYPE":"U","NORAD_CAT_ID":46672,"ELEMENT_SET_NO":999,"REV_AT_EPOCH":594,"BSTAR":1.2024739e-5,"MEAN_MOTION_DOT":6.3e-6,"MEAN_MOTION_DDOT":0}]
